GLOBALSTAR M045         
1 25676U 99019A   24277.41817266 -.00000016  00000+0  68451-3 0  9995
2 25676  51.9982 317.1112 0000674  95.0676 278.6175 12.27046186161874
GLOBALSTAR M019         
1 25677U 99019B   24277.60699314 -.00000166  00000+0 -79683-3 0  9995
2 25677  51.9874  68.8779 0001671 136.3362 303.5360 12.13862592153982
GLOBALSTAR M044         
1 25678U 99019C   24277.44768565  .00000037  00000+0  16894-2 0  9992
2 25678  51.9999 348.5678 0006031 262.9090 110.2936 11.90241318140750
GLOBALSTAR M042         
1 25679U 99019D   24277.57483736 -.00000074  00000+0  17532-3 0  9994
2 25679  52.0020  55.3670 0003667 122.3353 318.0603 12.22069235153885
GLOBALSTAR M025         
1 25770U 99031A   24277.57619469 -.00000075  00000+0 -22954-3 0  9990
2 25770  51.9846  33.7252 0002084  85.9862 286.6143 11.22553800452895
GLOBALSTAR M049         
1 25771U 99031B   24277.55629798 -.00000005  00000+0  20823-2 0  9999
2 25771  51.9885  55.6355 0002417 313.9703  46.0894 11.12109971 88873
GLOBALSTAR M047         
1 25772U 99031C   24277.43863667 -.00000063  00000+0  19462-3 0  9994
2 25772  51.9824  77.4021 0016396 178.6678 181.4174 11.31923543442034
GLOBALSTAR M052         
1 25773U 99031D   24277.42365094 -.00000052  00000+0  47305-3 0  9990
2 25773  51.9846 168.2286 0003210  93.5503  77.1531 11.15054452449866
